STORE NAME,ADDRESS1,CITY,STATE,ZIP,
Glendale Galleria PX I,3214 Glendale Galleria,Glendale,CA,91210,100
PLEASANT HILL,2060 Pleasant Hill Road,Duluth,GA,30096,1000
HWY 101 & DONAHUE,100 Donahue St,Sausalito,CA,94965,1001
BASELINE & 24TH ST,2434 E. Baseline Rd Suite #101,Phoenix,AZ,85042,1002
SAN PABLO & FAIRMONT,5020 El Cerrito Plaza #e-2,El Cerrito,CA,94530,1003
COTTONWOOD CORNER PX,3703 Ellison Drive Nw,Albuquerque,NM,87114,1004
CENTRAL & BEDFORD,2252 Central Drive,Bedford,TX,76021,1005
MORONGO CASINO,49500 Seminole Dr,Cabazon,CA,92230,1006
HWY 92 & TRICKUM RD,12162 Highway 92,Woodstock,GA,30188,1008
JOSEY & HEBRON,4105 N. Josey Lane,Carrollton,TX,75007,1009
3100 S & 5600 W PX,3051 S. Colt Plaza Dr,West Valley City,UT,84128,1011
WINCHESTER SQUARE,39112 Winchester Rd,Murrieta,CA,92563,1012
GOSFORD RD & PACHECO,5041 Gosford Rd.,Bakersfield,CA,93313,1013
DEVONSHIRE PLAZA PX,17056 Devonshire St,Northridge,CA,91325,1014
ROUTE 59 & LIBERTY,848 North Route 59,Aurora,IL,60504,1015
LAKEWOOD TOWN CENTER,10417 Gravelly Lake Drive Sw,Lakewood,WA,98499,1016
I-75 & MCDREMOTT,501 W. Mcdermott Drive,Allen,TX,75013,1017
BALDWIN PARK MARKETP,14480 Merced Ave,Baldwin Park,CA,91706,1018
1ST & 160TH,15842 1st Avenue South,Burien,WA,98148,1020
MENDOCINO MARKET PLA,2240 Mendocino Ave. Suite106,Santa Rosa,CA,95403,1021
HEGENBERGER RETAIL,8332 Oakport Street,Oakland,CA,94621,1022
SPRECKLES PARK,1467 Hulsey Way,Manteca,CA,95336,1023
161 & 90 (QFC),8867 161st Ave Ne,Redmond,WA,98052,1024
HWY 190 & GARLAND,5345 North Garland Ave,Garland,TX,75040,1025
GILBERT& UNIVERSITY,1950 E. University Drive,Mesa,AZ,85206,1026
CEDAR CITY,1872 West Cross Hollow Rd.,Cedar City,UT,84720,1027
SOLANA BEACH,689 Lomas Santa Fe Dr,Solana Beach,CA,92075,1029
ESCONDIDO PX,200 E. Via Rancho Pkwy,Escondido,CA,92025,103
FLOWER & PRAIRIE,2521 Flower Mound Road,Flower Mound,TX,75028,1030
CHANNEL ISLAND &ROSE,1671 E. Channel Islands Blvd,Oxnard,CA,93033,1031
PLAZA DEL AMO,3825 Torrance Blvd.,Torrance,CA,90503,1032
RIVER CROSSING PX,1990 W. River Road,Tucson,AZ,85704,1033
HAPPY VALLEY CENTER,2501 W. Happy Valley Road,Phoenix,AZ,85085,1034
TUALATIN & BALER,21155 Sw Baler Way,Sherwood,OR,97140,1036
ILLINOIS TOLLWAY LAK,13783 W. Oasis Service Rd.,Lake Forest,IL,60045,1038
OASIS DE KALB,2700 Crego Rd.,Dekalb,IL,60115,1039
MONTGOMERY & EUBANK,9500 Montgomery Blvd. Ne,Albuquerque,NM,87111,1040
SOUTH PARK MALL,2221 Sw Military,San Antonio,TX,78224,1041
ANTELOPE VALLEY & 10,39922 10th St West,Palmdale,CA,93551,1042
IL TOLLWAY LINCOLN,700 E Tri-State Tollway,South Holland,IL,60473,1043
DEL PASO & I-5,2940 Del Paso Road,Sacramento,CA,95834,1044
SEPULVEDA & NORDOFF,9008 Sepulveda Blvd.,North Hills,CA,91343,1045
ELK GROVE & WATERMAN,9304 Elk Grove Blvd,Elk Grove,CA,95624,1046
CROSSROADS TOWNE CE,3765 S. Gilbert Road,Gilbert,AZ,85296,1047
WATT & ROSEVILLE,4985 Watt Ave,North Highlands,CA,95660,1048
HUEBNER & I-10,11220 Huebner Road,San Antonio,TX,78230,1049
HWY 12 & SUNSET AVE,402 Lawler Center Drive,Suisun City,CA,94585,1050
ARGYLE SQUARE,8755 Sw Robert Burns Drive,Wilsonville,OR,97070,1051
THE MEADOWS PX,959 West State Street,American Fork,UT,84003,1052
Newhall Ranch & Copper Hill,28162 Newhall Ranch Road,Santa Clarita,CA,91355,1053
LA GRANGE & 60TH,185 Countryside Plaza,Countryside,IL,60525,1054
I-75 & LAKE LOY,4030 N Hwy 75,Sherman,TX,75090,1055
CITADEL FACTORY,150 Citadel Dr. Fc-b,Commerce,CA,90040,1056
LA GRANGE & 151ST,33 Orland Square Dr,Orland Park,IL,60462,1058
MT VERNON & HWY 178,2659 Mt. Vernon Ave.,Bakersfield,CA,93306,1059
ALA MOANA PX,1450 Ala Moana Blvd,Honolulu,HI,96814,106
YUMA PALM,1900 East 16th St,Yuma,AZ,85365,1060
I-15 & CENTRAL,29255 Central Ave.,Lake Elsinore,CA,92532,1061
MOUNTAIN & HAMILTON,904 Hamilton Rd,Duarte,CA,91010,1062
CENTURY CITY MALL,10250 Santa Monica Blvd.,Los Angeles,CA,90067,1064
ASU FOUNDATION,777 S. College Ave.,Tempe,AZ,85281,1065
ORLAND SQUARE MALL,340 Orland Square,Orland Park,IL,60462,1066
HWY 152 & OHLONE,20 Ohlone Pkwy Space #202,Watsonville,CA,95076,1067
SHOP AT TANFORAN,1150 El Camino Real,San Bruno,CA,94066,1068
WOODLAND PLAZA,90 Niblick Road,Paso Robles,CA,93446,1070
CULEBRA MARKETPLACE,10670 Culebra Road,San Antonio,TX,78251,1072
LOWE'S SUNSET PLAZA,1000 East Sunset Drive,Bellingham,WA,98226,1073
HIGHLAND HILL,6101 6th Ave,Tacoma,WA,98406,1074
THORNTON & HOLLYWOOD,2585 N. Hollywood Way,Burbank,CA,91505,1076
HWY 287 & WALNUT CRK,1171 N. Hwy 287,Mansfield,TX,76063,1077
CORTARO & ARIZONA,8140 N. Cortaro Road,Tucson,AZ,85743,1078
ELLIOT & HIGLEY,31 S. Higley Rd.,Gilbert,AZ,85296,1079
SANTA ANA PX,2800 N. Main St. #912,Santa Ana,CA,92701,108
SPOKANE VALLEY PLAZA,15603 E. Broadway Ave,Veradale,WA,99037,1080
MILLENIA & CONROY,4064 Millenia Blvd.,Orlando,FL,32839,1081
CENTRAL PARK PLAZA,750 South Progress Ave.,Meridian,ID,83642,1084
QUINCY & BUCKLEY,16891 East Quincy Ave.#a,Aurora,CO,80012,1085
TALBERT & NEWHOPE,"18011 Newhope Street, Suite #a",Fountain Valley,CA,92708,1086
COOK ROAD & BELT HWY,5301 North Belt Highway,Saint Joseph,MO,64506,1087
196TH & 40 AVE,4120 196th St SW,Lynnwood,WA,98036,1088
HWY 19 N & PARK BLVD,7000 Us Highway 19 N,Pinellas Park,FL,33781,1090
TORRENCE & RIVER OAK,1300 Torrence Ave,Calumet City,IL,60409,1091
COVELL & HWY 113 PX,1491 West Covell Blvd.,Davis,CA,95616,1092
BLACK STONE & BARSTOW,5347 North Blackstone Ave,Fresno,CA,93710,1093
78TH & 6TH,408 Ne 78th St.,Vancouver,WA,98665,1094
Reinhardt College & Riverstone,1401 Riverstone Pkwy.,Canton,GA,30114,1095
ELK GROVE &FRANKLIN,5010 Elk Grove Blvd.,Elk Grove,CA,95758,1097
I-805 & MAIN,1820 Main Court,Chula Vista,CA,91911,1098
51ST & BASELINE,5010 W. Baseline Rd.,Laveen,AZ,85339,1099
NEW JERSEY PX,30-303 Mall Drive W.,Jersey City,NJ,7310,110
SUPERIOR MARKETPLACE,301 Center Drive,Superior,CO,80027,1100
I-35 & ALSBURY,12858 South Freeway,Burleson,TX,76028,1101
29 EAST MADISON,29 East Madison,Chicago,IL,60602,1102
POWAY CITY CENTER,13624 Poway Road,Poway,CA,92064,1103
COLUMBIA TECH CENTER,526 Se 192 Ave.,Vancouver,WA,98683,1105
TOWN CENTER PLAZA,18503 Yorba Linda Blvd.,Yorba Linda,CA,92885,1106
COLFAX & WADSWORTH,1509 Wadsworth Blvd.,Lakewood,CO,80214,1107
COPPERFIELD CORNERS,15951 Fm529,Houston,TX,77095,1108
I-45 & WEST ROAD,10315 North Fwy,Houston,TX,77037,1109
